[{"OBJECT_NAME":"STARLINK-30702","OBJECT_ID":"2023-148W","EPOCH":"2026-03-09T05:48:17.758944","MEAN_MOTION":15.30191301,"ECCENTRICITY":9.511e-5,"INCLINATION":53.1613,"RA_OF_ASC_NODE":16.2915,"ARG_OF_PERICENTER":79.3427,"MEAN_ANOMALY":280.7681,"EPHEMERIS_TYPE":0,"CLASSIFICATION_TYPE":"U","NORAD_CAT_ID":57955,"ELEMENT_SET_NO":999,"REV_AT_EPOCH":13849,"BSTAR":-1.6505985e-5,"MEAN_MOTION_DOT":-8.48e-6,"MEAN_MOTION_DDOT":0},{"OBJECT_NAME":"FENGYUN 1C DEB","OBJECT_ID":"1999-025ETT","EPOCH":"2026-03-07T08:30:03.670560","MEAN_MOTION":15.28888299,"ECCENTRICITY":0.00158464,"INCLINATION":99.1103,"RA_OF_ASC_NODE":112.0072,"ARG_OF_PERICENTER":201.0032,"MEAN_ANOMALY":159.0553,"EPHEMERIS_TYPE":0,"CLASSIFICATION_TYPE":"U","NORAD_CAT_ID":38726,"ELEMENT_SET_NO":999,"REV_AT_EPOCH":71135,"BSTAR":0.013792546,"MEAN_MOTION_DOT":0.00409659,"MEAN_MOTION_DDOT":0}]
